SL-4 R/B                
1 39679U 14021B   26014.31829678  .00006331  00000+0  15351-3 0  9999
2 39679  51.6065 242.1702 0099397 264.4246  94.5394 15.37510302647909
ALOS-2                  
1 39766U 14029A   26013.93628078 -.00000088  00000+0 -48908-5 0  9993
2 39766  97.9202 113.3211 0001436  96.5947 263.5428 14.79478522628777
YAOGAN-29               
1 41038U 15069A   26014.61312247  .00000092  00000+0  18011-4 0  9991
2 41038  98.0202  42.8870 0002208 126.9021 233.2395 14.82922943547862
ASTRO-H (HITOMI)        
1 41337U 16012A   26014.29029390  .00001992  00000+0  11514-3 0  9990
2 41337  31.0011 347.4893 0009673 147.3689 212.7548 15.09591041544004
HXMT (HUIYAN)           
1 42758U 17034A   26014.32876845  .00003983  00000+0  20875-3 0  9994
2 42758  43.0159 318.7274 0033512 251.6820 108.0381 15.16702789474282
CZ-2C R/B               
1 43521U 18054D   26014.18699590  .00144033  00000+0  63711-3 0  9998
2 43521  35.1338 319.5538 0010388 124.7767 235.3948 15.82947201420186
SAOCOM 1A               
1 43641U 18076A   26014.61703872  .00000367  00000+0  52620-4 0  9991
2 43641  97.8854 203.5611 0001499  85.4370 274.7014 14.82148824393359
H-2A R/B                
1 43682U 18084L   26014.54655692  .00010697  00000+0  27861-3 0  9998
2 43682  98.8767 220.4642 0025912 210.4481 149.5256 15.38788363397440
SAOCOM 1B               
1 46265U 20059A   26014.64824008 -.00000122  00000+0 -87576-5 0  9998
2 46265  97.8850 202.6911 0001319  85.4686 274.6678 14.82147614290744
CSS (TIANHE)            
1 48274U 21035A   26014.49535826  .00012503  00000+0  15081-3 0  9999
2 48274  41.4650 177.6413 0011421 283.7377  76.2190 15.60505060269147
COSMOS 2550             
1 48865U 21056A   26014.26463363 -.00000175  00000+0  50019-6 0  9995
2 48865  67.1411 205.5546 0008344 269.0866  90.9332 15.33822042255116
CZ-2C R/B               
1 52794U 22058K   26014.31041367  .00013851  00000+0  23730-3 0  9997
2 52794  50.1888 237.2100 0043014 332.0612  27.8048 15.50453835201688
