CCSDS_OMM_VERS = 2.0
CREATION_DATE  = 
ORIGINATOR     = 

OBJECT_NAME    = SL-4 R/B
OBJECT_ID      = 2014-021B
CENTER_NAME    = EARTH
REF_FRAME      = TEME
TIME_SYSTEM    = UTC
MEAN_ELEMENT_THEORY = SGP/SGP4

EPOCH          = 2026-01-14T07:38:20.841792
MEAN_MOTION    = 15.37510302
ECCENTRICITY   = .00993975
INCLINATION    = 51.6065
RA_OF_ASC_NODE = 242.1702
ARG_OF_PERICENTER = 264.4246
MEAN_ANOMALY   = 94.5394

EPHEMERIS_TYPE = 0
CLASSIFICATION_TYPE = U
NORAD_CAT_ID   = 39679
ELEMENT_SET_NO = 999
REV_AT_EPOCH   = 64790
BSTAR          = .15350522E-3
MEAN_MOTION_DOT = .6331E-4
MEAN_MOTION_DDOT = 0

CCSDS_OMM_VERS = 2.0
CREATION_DATE  = 
ORIGINATOR     = 

OBJECT_NAME    = ALOS-2
OBJECT_ID      = 2014-029A
CENTER_NAME    = EARTH
REF_FRAME      = TEME
TIME_SYSTEM    = UTC
MEAN_ELEMENT_THEORY = SGP/SGP4

EPOCH          = 2026-01-13T22:28:14.659392
MEAN_MOTION    = 14.79478522
ECCENTRICITY   = .00014368
INCLINATION    = 97.9202
RA_OF_ASC_NODE = 113.3211
ARG_OF_PERICENTER = 96.5947
MEAN_ANOMALY   = 263.5428

EPHEMERIS_TYPE = 0
CLASSIFICATION_TYPE = U
NORAD_CAT_ID   = 39766
ELEMENT_SET_NO = 999
REV_AT_EPOCH   = 62877
BSTAR          = -.4890843E-5
MEAN_MOTION_DOT = -.88E-6
MEAN_MOTION_DDOT = 0

CCSDS_OMM_VERS = 2.0
CREATION_DATE  = 
ORIGINATOR     = 

OBJECT_NAME    = YAOGAN-29
OBJECT_ID      = 2015-069A
CENTER_NAME    = EARTH
REF_FRAME      = TEME
TIME_SYSTEM    = UTC
MEAN_ELEMENT_THEORY = SGP/SGP4

EPOCH          = 2026-01-14T14:42:53.781408
MEAN_MOTION    = 14.82922943
ECCENTRICITY   = .00022082
INCLINATION    = 98.0202
RA_OF_ASC_NODE = 42.8870
ARG_OF_PERICENTER = 126.9021
MEAN_ANOMALY   = 233.2395

EPHEMERIS_TYPE = 0
CLASSIFICATION_TYPE = U
NORAD_CAT_ID   = 41038
ELEMENT_SET_NO = 999
REV_AT_EPOCH   = 54786
BSTAR          = .18011132E-4
MEAN_MOTION_DOT = .92E-6
MEAN_MOTION_DDOT = 0

CCSDS_OMM_VERS = 2.0
CREATION_DATE  = 
ORIGINATOR     = 

OBJECT_NAME    = ASTRO-H (HITOMI)
OBJECT_ID      = 2016-012A
CENTER_NAME    = EARTH
REF_FRAME      = TEME
TIME_SYSTEM    = UTC
MEAN_ELEMENT_THEORY = SGP/SGP4

EPOCH          = 2026-01-14T06:58:01.392960
MEAN_MOTION    = 15.09591041
ECCENTRICITY   = .00096735
INCLINATION    = 31.0011
RA_OF_ASC_NODE = 347.4893
ARG_OF_PERICENTER = 147.3689
MEAN_ANOMALY   = 212.7548

EPHEMERIS_TYPE = 0
CLASSIFICATION_TYPE = U
NORAD_CAT_ID   = 41337
ELEMENT_SET_NO = 999
REV_AT_EPOCH   = 54400
BSTAR          = .11513944E-3
MEAN_MOTION_DOT = .1992E-4
MEAN_MOTION_DDOT = 0

CCSDS_OMM_VERS = 2.0
CREATION_DATE  = 
ORIGINATOR     = 

OBJECT_NAME    = HXMT (HUIYAN)
OBJECT_ID      = 2017-034A
CENTER_NAME    = EARTH
REF_FRAME      = TEME
TIME_SYSTEM    = UTC
MEAN_ELEMENT_THEORY = SGP/SGP4

EPOCH          = 2026-01-14T07:53:25.594080
MEAN_MOTION    = 15.16702789
ECCENTRICITY   = .00335129
INCLINATION    = 43.0159
RA_OF_ASC_NODE = 318.7274
ARG_OF_PERICENTER = 251.6820
MEAN_ANOMALY   = 108.0381

EPHEMERIS_TYPE = 0
CLASSIFICATION_TYPE = U
NORAD_CAT_ID   = 42758
ELEMENT_SET_NO = 999
REV_AT_EPOCH   = 47428
BSTAR          = .20874781E-3
MEAN_MOTION_DOT = .3983E-4
MEAN_MOTION_DDOT = 0

CCSDS_OMM_VERS = 2.0
CREATION_DATE  = 
ORIGINATOR     = 

OBJECT_NAME    = CZ-2C R/B
OBJECT_ID      = 2018-054D
CENTER_NAME    = EARTH
REF_FRAME      = TEME
TIME_SYSTEM    = UTC
MEAN_ELEMENT_THEORY = SGP/SGP4

EPOCH          = 2026-01-14T04:29:16.445760
MEAN_MOTION    = 15.82947201
ECCENTRICITY   = .00103884
INCLINATION    = 35.1338
RA_OF_ASC_NODE = 319.5538
ARG_OF_PERICENTER = 124.7767
MEAN_ANOMALY   = 235.3948

EPHEMERIS_TYPE = 0
CLASSIFICATION_TYPE = U
NORAD_CAT_ID   = 43521
ELEMENT_SET_NO = 999
REV_AT_EPOCH   = 42018
BSTAR          = .63710596E-3
MEAN_MOTION_DOT = .144033E-2
MEAN_MOTION_DDOT = 0

CCSDS_OMM_VERS = 2.0
CREATION_DATE  = 
ORIGINATOR     = 

OBJECT_NAME    = SAOCOM 1A
OBJECT_ID      = 2018-076A
CENTER_NAME    = EARTH
REF_FRAME      = TEME
TIME_SYSTEM    = UTC
MEAN_ELEMENT_THEORY = SGP/SGP4

EPOCH          = 2026-01-14T14:48:32.145408
MEAN_MOTION    = 14.82148824
ECCENTRICITY   = .00014998
INCLINATION    = 97.8854
RA_OF_ASC_NODE = 203.5611
ARG_OF_PERICENTER = 85.4370
MEAN_ANOMALY   = 274.7014

EPHEMERIS_TYPE = 0
CLASSIFICATION_TYPE = U
NORAD_CAT_ID   = 43641
ELEMENT_SET_NO = 999
REV_AT_EPOCH   = 39335
BSTAR          = .52620301E-4
MEAN_MOTION_DOT = .367E-5
MEAN_MOTION_DDOT = 0

CCSDS_OMM_VERS = 2.0
CREATION_DATE  = 
ORIGINATOR     = 

OBJECT_NAME    = H-2A R/B
OBJECT_ID      = 2018-084L
CENTER_NAME    = EARTH
REF_FRAME      = TEME
TIME_SYSTEM    = UTC
MEAN_ELEMENT_THEORY = SGP/SGP4

EPOCH          = 2026-01-14T13:07:02.517888
MEAN_MOTION    = 15.38788363
ECCENTRICITY   = .00259129
INCLINATION    = 98.8767
RA_OF_ASC_NODE = 220.4642
ARG_OF_PERICENTER = 210.4481
MEAN_ANOMALY   = 149.5256

EPHEMERIS_TYPE = 0
CLASSIFICATION_TYPE = U
NORAD_CAT_ID   = 43682
ELEMENT_SET_NO = 999
REV_AT_EPOCH   = 39744
BSTAR          = .27860656E-3
MEAN_MOTION_DOT = .10697E-3
MEAN_MOTION_DDOT = 0

CCSDS_OMM_VERS = 2.0
CREATION_DATE  = 
ORIGINATOR     = 

OBJECT_NAME    = SAOCOM 1B
OBJECT_ID      = 2020-059A
CENTER_NAME    = EARTH
REF_FRAME      = TEME
TIME_SYSTEM    = UTC
MEAN_ELEMENT_THEORY = SGP/SGP4

EPOCH          = 2026-01-14T15:33:27.942912
MEAN_MOTION    = 14.82147614
ECCENTRICITY   = .00013199
INCLINATION    = 97.8850
RA_OF_ASC_NODE = 202.6911
ARG_OF_PERICENTER = 85.4686
MEAN_ANOMALY   = 274.6678

EPHEMERIS_TYPE = 0
CLASSIFICATION_TYPE = U
NORAD_CAT_ID   = 46265
ELEMENT_SET_NO = 999
REV_AT_EPOCH   = 29074
BSTAR          = -.8757555E-5
MEAN_MOTION_DOT = -.122E-5
MEAN_MOTION_DDOT = 0

CCSDS_OMM_VERS = 2.0
CREATION_DATE  = 
ORIGINATOR     = 

OBJECT_NAME    = CSS (TIANHE)
OBJECT_ID      = 2021-035A
CENTER_NAME    = EARTH
REF_FRAME      = TEME
TIME_SYSTEM    = UTC
MEAN_ELEMENT_THEORY = SGP/SGP4

EPOCH          = 2026-01-14T11:53:18.953664
MEAN_MOTION    = 15.60505060
ECCENTRICITY   = .00114215
INCLINATION    = 41.4650
RA_OF_ASC_NODE = 177.6413
ARG_OF_PERICENTER = 283.7377
MEAN_ANOMALY   = 76.2190

EPHEMERIS_TYPE = 0
CLASSIFICATION_TYPE = U
NORAD_CAT_ID   = 48274
ELEMENT_SET_NO = 999
REV_AT_EPOCH   = 26914
BSTAR          = .15080508E-3
MEAN_MOTION_DOT = .12503E-3
MEAN_MOTION_DDOT = 0

CCSDS_OMM_VERS = 2.0
CREATION_DATE  = 
ORIGINATOR     = 

OBJECT_NAME    = COSMOS 2550
OBJECT_ID      = 2021-056A
CENTER_NAME    = EARTH
REF_FRAME      = TEME
TIME_SYSTEM    = UTC
MEAN_ELEMENT_THEORY = SGP/SGP4

EPOCH          = 2026-01-14T06:21:04.345632
MEAN_MOTION    = 15.33822042
ECCENTRICITY   = .00083449
INCLINATION    = 67.1411
RA_OF_ASC_NODE = 205.5546
ARG_OF_PERICENTER = 269.0866
MEAN_ANOMALY   = 90.9332

EPHEMERIS_TYPE = 0
CLASSIFICATION_TYPE = U
NORAD_CAT_ID   = 48865
ELEMENT_SET_NO = 999
REV_AT_EPOCH   = 25511
BSTAR          = .500192E-6
MEAN_MOTION_DOT = -.175E-5
MEAN_MOTION_DDOT = 0

CCSDS_OMM_VERS = 2.0
CREATION_DATE  = 
ORIGINATOR     = 

OBJECT_NAME    = CZ-2C R/B
OBJECT_ID      = 2022-058K
CENTER_NAME    = EARTH
REF_FRAME      = TEME
TIME_SYSTEM    = UTC
MEAN_ELEMENT_THEORY = SGP/SGP4

EPOCH          = 2026-01-14T07:26:59.741088
MEAN_MOTION    = 15.50453835
ECCENTRICITY   = .00430148
INCLINATION    = 50.1888
RA_OF_ASC_NODE = 237.2100
ARG_OF_PERICENTER = 332.0612
MEAN_ANOMALY   = 27.8048

EPHEMERIS_TYPE = 0
CLASSIFICATION_TYPE = U
NORAD_CAT_ID   = 52794
ELEMENT_SET_NO = 999
REV_AT_EPOCH   = 20168
BSTAR          = .23730034E-3
MEAN_MOTION_DOT = .13851E-3
MEAN_MOTION_DDOT = 0

